LILACSAT-2
1 40908U 15049K   17257.89208492  .00000803  00000-0  48776-4 0  9991
2 40908  97.4646 261.0345 0014475 260.2107  99.7489 15.13217756109733
XW-2F
1 40910U 15049M   17257.55377599  .00001910  00000-0  10339-3 0  9995
2 40910 097.4559 261.8429 0013620 259.5544 100.4154 15.15769695109811
XW-2B
1 40911U 15049N   17257.74570313  .00001269  00000-0  71852-4 0  9991
2 40911  97.4583 261.6234 0012761 262.3321  97.6462 15.14771415109698
DCBB
1 40912U 15049P   17257.49930119  .00002820  00000-0  14213-3 0  9999
2 40912 097.4524 263.8830 0013833 250.6214 260.9306 15.17902049109832
TW-1C
1 40926U 15051B   17257.80562990  .00010417  00000-0  22924-3 0  9999
2 40926  97.2217 296.7040 0010694 193.8353 254.6926 15.44094818110742
TW-1A
1 40928U 15051D   17257.52124130  .00005073  00000-0  14326-3 0  9999
2 40928 097.2203 291.7282 0010695 231.6130 271.7513 15.36761228110410
IO-86
1 40931U 15052B   17257.47356190  .00000819  00000-0  25087-4 0  9991
2 40931 006.0006 316.1161 0013218 064.7053 295.4490 14.76542629106185
GomX-3
1 40949U 98067HA  16292.18357804  .08527750  12374-4  77882-3 0  9992
2 40949  51.6055 106.7696 0006699 286.1344  73.8944 16.38002265 59645
LQSat
1 40958U 15057A   17257.71291910  .00000157  00000-0  32087-4 0  9993
2 40958  97.9716 331.4404 0019137 136.0907 224.1822 14.72985544104299
AO-85
1 40967U 15058D   17257.43535610  .00000464  00000-0  71902-4 0 00880
2 40967 064.7763 308.1470 0177066 045.1739 316.3583 14.75492253012969
ATHENOXAT-1
1 41168U 15077C   17257.33607286  .00004563  00000-0  22003-3 0  9995
2 41168 014.9863 238.0660 0012282 170.9510 222.2370 15.11873258096550
ChubuSat-2
1 41338U 16012B   17257.40282746  .00000565  00000-0  37691-4 0  9990
2 41338 031.0029 265.6265 0013953 222.7313 137.2238 14.99800648086390
ChubuSat-3
1 41339U 16012C   17257.38548359  .00000777  00000-0  54163-4 0  9991
2 41339 031.0106 264.7405 0013455 230.6764 129.2670 15.00003086086371
Horyu-4
1 41340U 16012D   17257.38601125  .00000867  00000-0  59985-4 0  9991
2 41340 031.0048 261.6138 0014221 238.4286 121.4961 15.00690914086429
OUFTI-1
1 41458U 16025C   17257.76845396  .00002101  00000-0  11558-3 0  9993
2 41458  98.1780 300.4608 0172340 350.9128   8.8981 15.03573829 76036
e-st at r-II
1 41459U 16025D   17257.79945837  .00002781  00000-0  15181-3 0  9998
2 41459  98.1760 300.4238 0173100 350.9168   8.8916 15.03382093 76032
AAUSAT4
1 41460U 16025E   17257.87394614  .00003513  00000-0  18977-3 0  9990
2 41460  98.1689 300.6628 0165832 348.5344  11.2107 15.04406648 76079
NODES 1
1 41477U 98067HX  17257.82983534  .01027337  69546-3  78381-3 0  9993
2 41477  51.6140 251.0443 0003158  69.3322 290.8032 16.14562911 76343
NODES 2
1 41478U 98067HY  17257.69320736  .00578542  18096-3  64728-3 0  9990
2 41478  51.6218 253.2332 0005111  64.3174 295.8343 16.08780297 76300
LO-87
1 41557U 16033B   17257.84519797  .00002914  00000-0  11123-3 0  9994
2 41557  97.4583 337.3538 0015431  55.3695 304.8996 15.27368870 72116
NuSat2
1 41558U 16033C   17257.75670108  .00002468  00000-0  95174-4 0  9992
2 41558  97.4611 337.3295 0014861  54.7099 305.5527 15.27186596 72094
Lapan A3
1 41603U 16040E   17257.81279256  .00000444  00000-0  24150-4 0  9995
2 41603  97.4514 318.6847 0015143 117.9743 352.7320 15.19407777 68261
Swayam
1 41607U 16040J   17257.40908022  .00002633  00000-0  12108-3 0  9995
2 41607 097.4523 318.7842 0015735 121.8415 238.4354 15.21137789068160
Pratham
1 41783U 16059A   17257.76554983  .00000091  00000-0  27196-4 0  9992
2 41783  98.1584 318.1723 0032529 238.7147 121.0868 14.62858414 51698
AlSat 1N
1 41789U 16059G   17257.74824757  .00000252  00000-0  56999-4 0  9997
2 41789  98.1586 318.8302 0027161 232.0211 127.8537 14.64075842 51719
ScatSat
1 41790U 16059H   17257.58980780  .00000019  00000-0  16018-4 0  9999
2 41790 098.3017 304.7615 0017470 213.4997 146.5094 14.50854341051225
TY-1
1 41844U 16066D   17257.82131109  .00002400  00000-0  10700-3 0  9994
2 41844  97.4069 263.6368 0014150 286.3031 197.7583 15.22303682 46974
CAS-2T
1 41845U 16066E   17257.89100137  .00000317  00000-0  59081-4 0  9990
2 41845  98.7744 275.6541 0366195 342.2032  16.6619 14.37797391 44388
Pegasus-1
1 41846U 16066F   17257.57212970  .00000656  00000-0  11100-3 0  9990
2 41846 098.7786 275.0474 0368806 344.7274 014.3012 14.37111284044316
STARS-C
1 41895U 98067KR  17257.61460771  .00037612  00000-0  34774-3 0  9998
2 41895 051.6363 301.3387 0004395 331.8634 028.2124 15.67155333041987
Tancredo 1
1 41931U 98067KT  17257.19670296  .00124905  00000-0  59876-3 0  9999
2 41931  51.6310 294.7040 0004720 353.9734   6.1211 15.81827626 37602
TO-89
1 41932U 98067KU  17257.16925900  .00021803  00000-0  25089-3 0  9994
2 41932 051.6405 307.4155 0003762 253.4955 106.5626 15.61920630037434
AOBA-V3LOX3
1 41935U 98067KX  17257.32686466  .00016417  00000-0  18598-3 0  9998
2 41935  51.6398 306.2107 0003239 264.5303  95.5321 15.62547895 37563
OSNSAT
1 41939U 98067KZ  17257.40370201  .00038790  00000-0  31603-3 0  9998
2 41939 051.6358 299.9147 0003438 292.2467 067.8165 15.70235091036901
EO-88
1 42017U 17008BX  17257.51917251  .00002703  00000-0  11685-3 0  9999
2 42017 097.4868 318.7777 0004921 266.4024 093.6650 15.23332580032082
HAVELSAT
1 42700U 98067LH  17257.55664274  .00016089  00000-0  21367-3 0  9990
2 42700 051.6400 310.7268 0006259 310.3842 049.6604 15.58365533018867
SOMP2
1 42701U 98067LJ  17257.76036782  .00017024  00000-0  22827-3 0  9993
2 42701  51.6399 309.8415 0006113 310.9315  49.1147 15.58060783 18886
Columbia
1 42702U 98067LK  17257.26485717  .00033517  00000-0  38348-3 0  9995
2 42702  51.6388 311.0270 0006466 316.8676  43.1811 15.61800992 18751
PHOENIX
1 42706U 98067LP  17257.69142399  .00030419  00000-0  39898-3 0  9991
2 42706  51.6397 310.1325 0001391 321.4885  38.6008 15.58279343 18799
X-CubeSat
1 42707U 98067LQ  17257.62729198  .00016763  00000-0  22328-3 0  9999
2 42707  51.6390 310.4495 0001575 324.2948  35.7939 15.58265701 18771
qbee
1 42708U 98067LR  17257.69465458  .00016461  00000-0  21997-3 0  9999
2 42708  51.6390 310.1497 0001597 322.8470  37.2412 15.58193139 18744
ZA-AeroSat
1 42713U 98067LU  17257.59294917  .00012183  00000-0  16861-3 0  9995
2 42713  51.6399 310.9715 0001239 248.0254 112.0607 15.57541955 18438
LINK
1 42714U 98067LV  17257.69991198  .00023078  00000-0  30075-3 0  9990
2 42714  51.6391 310.1822 0001288 285.6535  74.4316 15.58613415 18569
UPSat
1 42716U 98067LX  17257.23587491  .00016250  00000-0  21378-3 0  9999
2 42716 051.6398 312.3369 0004790 316.6043 043.4572 15.58616449018513
SpaceCube
1 42717U 98067LY  17257.76876369  .00017700  00000-0  23722-3 0  9999
2 42717  51.6398 309.8946 0004682 317.2515  42.8113 15.58049578 17838
Hoopoe
1 42718U 98067LZ  17257.63052693  .00018113  00000-0  23980-3 0  9997
2 42718  51.6393 310.4739 0004721 317.1030  42.9593 15.58358483 17816
Challenger
1 42721U 98067MA  17257.75741326  .00026970  00000-0  34456-3 0  9992
2 42721  51.6387 309.8149 0007037 294.5853  65.4406 15.59023101 17533
NJUST-1
1 42722U 98067MB  17257.23091024  .00013137  00000-0  18300-3 0  9990
2 42722  51.6396 313.0503 0007023 287.9884  72.0343 15.57269875 17442
UNSW-EC0
1 42723U 98067MC  17257.72195109  .00019146  00000-0  25540-3 0  9994
2 42723  51.6398 310.3331 0006882 292.3938  67.6325 15.58100544 17501
DUTHsat
1 42724U 98067MD  17257.70319507  .00024363  00000-0  31438-3 0  9993
2 42724  51.6398 310.2061 0006308 299.4672  60.5691 15.58824341 17424
LO-90
1 42725U 98067ME  17257.61636457  .00016268  00000-0  22338-3 0  9994
2 42725  51.6398 311.1268 0006119 295.0898  64.9458 15.57460373 17403
nSIGHT1
1 42726U 98067MF  17257.58310818  .00009197  00000-0  13468-3 0  9998
2 42726  51.6406 311.6560 0006121 292.6298  67.4046 15.56350560 17400
QBITO
1 42728U 98067MH  17257.59943735  .00016345  00000-0  22120-3 0  9999
2 42728  51.6408 311.0178 0003748 311.2389  48.8280 15.57857500 17213
Aalto-2
1 42729U 98067MJ  17257.72756403  .00016999  00000-0  22976-3 0  9993
2 42729  51.6399 310.3698 0003734 311.8911  48.1763 15.57858595 17241
SUSat
1 42730U 98067MK  17257.60422508  .00015215  00000-0  20762-3 0  9999
2 42730  51.6399 311.0447 0003744 308.8760  51.1897 15.57698111 17217
i-INSPIRE II
1 42731U 98067ML  17257.65362644  .00020210  00000-0  26742-3 0  9994
2 42731  51.6385 310.6173 0005635 238.6796 121.3645 15.58285624 17273
PolyITAN-2-SAU
1 42732U 98067MM  17257.66038805  .00016872  00000-0  22731-3 0  9998
2 42732  51.6391 310.6612 0005931 236.1005 123.9423 15.57941087 17277
SNUSAT-1
1 42733U 98067MN  17257.60466796  .00015369  00000-0  20925-3 0  9990
2 42733  51.6393 311.0405 0005849 237.8852 122.1573 15.57741257 17264
ExAlta-1
1 42734U 98067MP  17257.65408968  .00018256  00000-0  24280-3 0  9999
2 42734  51.6387 310.6227 0007739 264.5753  95.4357 15.58211872 17226
Aoxiang-1
1 42735U 98067MQ  17257.54892779  .00014147  00000-0  19589-3 0  9996
2 42735 051.6395 311.4233 0007576 285.1669 074.8484 15.57353465018627
BeEagleSat
1 42736U 98067MR  17257.41775267  .00013568  00000-0  18711-3 0  9997
2 42736  51.6396 312.0474 0007454 284.4777  75.5388 15.57506104 17293
Atlantis
1 42737U 98067MS  17257.45862288  .00029598  00000-0  35432-3 0  9991
2 42737 051.6379 310.8139 0007187 294.0834 065.9407 15.60682563017207
CAS-4B
1 42759U 17034B   17257.81016259  .00001058  00000-0  79377-4 0  9997
2 42759  43.0182 154.7344 0007606 195.9209 273.8332 15.08997315 13841
CAS-4A
1 42761U 17034D   17257.86837130  .00001035  00000-0  77761-4 0  9994
2 42761  43.0185 154.3582 0007863 196.3812 254.3495 15.09071619 13842
UCLSat
1 42765U 17036A   17257.37439556  .00002102  00000-0  97993-4 0  9991
2 42765 097.4415 316.1566 0011126 329.5891 030.4698 15.20933966013369
NIUSat
1 42766U 17036B   17257.57505842  .00001722  00000-0  83808-4 0  9993
2 42766 097.4418 316.1981 0014971 311.4053 048.5895 15.19642435012662
